1 11045U 78091C   19016.48164771 -.00000025  00000-0 -57455-4 0  9990
2 11045  74.0374 305.7157 0025358 273.6199 207.8562 12.50807362839695
1 11046U 78091D   19015.52498709 -.00000005 +00000-0 +71889-4 0  9990
2 11046 074.0354 035.8200 0012305 031.2270 082.5925 12.48367603835749
1 11047U 78091E   19015.72659125 -.00000023 +00000-0 -48703-4 0  9994
2 11047 074.0360 125.5638 0006559 224.4615 248.1871 12.45892271423410
1 11048U 78091F   19016.21065984 -.00000013  00000-0  20609-4 0  9997
2 11048  74.0354  49.3991 0046979 229.0599 194.7029 12.37991286342486
1 11049U 78091G   19015.95575309 -.00000018 +00000-0 -20772-4 0  9992
2 11049 074.0372 307.4427 0029715 118.0386 311.1544 12.40840942824768
1 11050U 78091H   19015.95755896 +.00000002 +00000-0 +12964-3 0  9999
2 11050 074.0324 219.4627 0019712 352.6759 118.0142 12.43285242828342
1 11060U 78096A   19015.80131568 -.00000026  00000-0  89618-5 0  9992
2 11060  98.8144  74.4248 0011514 127.1180 233.1049 14.18221283294857
1 11080U 78098A   19016.52260835 -.00000017  00000-0  26410-4 0  9996
2 11080  99.5578 165.8475 0008405 220.3112 139.7419 13.84301941 32158
1 11084U 78100A   19015.79991392 +.00000044 +00000-0 +45329-3 0  9999
2 11084 082.5496 134.9375 0011955 347.8422 123.3523 11.96756273757154
1 11085U 78100B   19015.86606101 -.00000025 +00000-0 -43590-3 0  9998
2 11085 082.5497 138.6522 0012563 354.7312 124.8140 11.96546719756783
1 11086U 78100C   19015.83470481  .00000008  00000-0 -10172-4 0  9997
2 11086  82.5504 136.9281 0011827 347.3140 127.3565 11.96726127757261
1 11111U 78105A   19015.88790590 -.00000006 +00000-0 +71214-5 0  9995
2 11111 074.0265 259.8741 0017404 303.7689 056.1804 14.34237335099624
1 11128U 78109A   19015.71335098 -.00000025 +00000-0 -54875-4 0  9992
2 11128 074.0175 097.8439 0058402 184.4414 292.0434 12.55918290838931
1 11129U 78109B   19015.95247830 +.00000002 +00000-0 +11582-3 0  9995
2 11129 074.0146 179.4709 0050058 286.2867 192.3720 12.53681797835764
1 11130U 78109C   19015.83389440 -.00000016 +00000-0 -35924-5 0  9993
2 11130 074.0162 261.2033 0036886 020.7469 046.3731 12.51453662832556
1 11131U 78109D   19015.93630184 -.00000009 +00000-0 +41811-4 0  9991
2 11131 074.0184 340.4365 0026579 124.3048 290.7381 12.49268791829377
1 11132U 78109E   19015.55855181 -.00000019 +00000-0 -22564-4 0  9992
2 11132 074.0170 066.8621 0017701 242.0191 233.7513 12.46909787825814
1 11133U 78109F   19015.80435377 -.00000024 +00000-0 -56110-4 0  9992
2 11133 074.0152 154.1605 0019756 020.9322 090.9555 12.44474737822275
1 11134U 78109G   19015.93113410 -.00000011 +00000-0 +33616-4 0  9999
2 11134 074.0139 239.8641 0021958 159.4084 304.5705 12.42090219818826
1 11135U 78109H   19016.22137149 -.00000014  00000-0  15080-4 0  9996
2 11135  74.0187 333.7204 0037462 271.1508 192.5648 12.39464846815251
1 11165U 78121A   19015.57545318 -.00000022 +00000-0 -18726-4 0  9991
2 11165 081.2368 022.7421 0049091 224.0986 135.6267 14.11605783579070
1 11168U 78122A   19016.55008264  .00000038  00000-0  62400-4 0  9991
2 11168  82.9698 232.1555 0035124 220.6097 197.9105 13.20152461930161
1 11238U 79003A   19015.72789650  .00000020  00000-0  54930-5 0  9992
2 11238  82.9396  50.7730 0036238 317.5595 180.2960 13.74143531  5512
1 11251U 79005A   19016.28693890  .00000636  00000-0  19503-4 0  9990
2 11251  97.6779 271.3305 0016147 169.3202 190.8388 15.37744606728412
1 11288U 79021A   19015.87495316 +.00000136 +00000-0 +67437-4 0  9999
2 11288 081.2166 272.0096 0024896 063.5093 296.8628 14.11854117052671
1 11296U 79024A   19015.61510921 -.00000016 +00000-0 +13533-5 0  9990
2 11296 074.0327 073.6815 0040093 237.6377 236.7167 12.57244385828422
1 11297U 79024B   19015.87555187 -.00000002 +00000-0 +88936-4 0  9995
2 11297 074.0334 159.2985 0026991 343.5080 131.9688 12.54917599424886
1 11298U 79024C   19015.91439455 -.00000009 +00000-0 +42847-4 0  9998
2 11298 074.0317 243.1044 0014000 076.7080 048.1810 12.52570122821624
1 11299U 79024D   19016.28246071 -.00000019  00000-0 -22571-4 0  9994
2 11299  74.0357 321.3051 0002674 240.5366 232.1332 12.50447175818717
1 11300U 79024E   19016.53270490 -.00000024  00000-0 -57240-4 0  9994
2 11300  74.0333 145.3375 0024576 181.3964 249.6152 12.45250996811340
1 11301U 79024F   19016.21633505 -.00000016  00000-0 -28008-5 0  9992
2 11301  74.0324  53.2178 0009694  90.4898 332.1890 12.47840353814983
1 11302U 79024G   19015.92058896 -.00000005 +00000-0 +80039-4 0  9992
2 11302 074.0309 232.1307 0037824 289.0486 176.8655 12.42838398807439
1 11303U 79024H   19016.22905449 -.00000013  00000-0  16245-4 0  9999
2 11303  74.0357 328.4890 0051206  30.9203  74.4629 12.40120535803872
1 11308U 79026A   19016.07051740  .00000033  00000-0  18960-4 0  9992
2 11308  82.9758 353.5603 0023204  26.5353  18.3757 13.75166202997283
1 11320U 79028A   19015.97219074 +.00000036 +00000-0 +22163-4 0  9995
2 11320 082.9242 344.8594 0031091 152.2552 265.5773 13.74657397994884
1 11326U 79030A   19016.37782859  .00000035  00000-0  20375-4 0  9997
2 11326  82.9475 252.2877 0030444 103.0596 293.7521 13.75366048230245
1 11378U 79046A   19016.20067726  .00000010  00000-0 -54447-5 0  9994
2 11378  82.9465 269.1751 0031887 212.6958 257.5935 13.75785384989268
1 11416U 79057A   19015.92569528 +.00000037 +00000-0 +29400-4 0  9992
2 11416 098.6276 010.4125 0010116 348.1952 011.8993 14.33513429062630
1 11425U 79060A   19015.88444402 +.00000003 +00000-0 +10650-4 0  9994
2 11425 074.0136 168.8995 0013656 159.4012 200.7692 14.33243954066179
1 11510U 79078A   19015.66136530 -.00000001 +00000-0 +92107-5 0  9991
2 11510 074.0351 089.2071 0013898 253.6406 106.3217 14.33138042057227
1 11538U 79084A   19015.69603149 -.00000025 +00000-0 -52140-4 0  9995
2 11538 074.0254 103.6424 0053638 246.5099 228.9000 12.56223215802563
1 11539U 79084B   19015.86744539 +.00000002 +00000-0 +10996-3 0  9999
2 11539 074.0230 170.9018 0046149 332.5480 138.5256 12.54346654799861
1 11540U 79084C   19016.03354191 -.00000001  00000-0  91564-4 0  9993
2 11540  74.0223 232.5577 0035653  43.8814  65.6164 12.52622433797654
1 11541U 79084D   19016.20566485 -.00000023  00000-0 -44549-4 0  9990
2 11541  74.0259 295.6657 0027459 126.7333 342.0327 12.50839111729216
1 11542U 79084E   19015.91794948 +.00000002 +00000-0 +12079-3 0  9992
2 11542 074.0258 000.7045 0019577 212.1374 195.1512 12.49035741792318
1 11543U 79084F   19015.61898772 -.00000021 +00000-0 -33896-4 0  9994
2 11543 074.0248 070.9225 0019880 322.8375 148.9672 12.47060780789389
1 11544U 79084G   19015.75056344 -.00000017 +00000-0 -86281-5 0  9993
2 11544 074.0247 134.2108 0014945 070.8767 041.6001 12.45268293786845
1 11545U 79084H   19015.96026721 +.00000003 +00000-0 +13129-3 0  9995
2 11545 074.0217 208.6337 0026547 172.7487 297.5308 12.43157758783845
1 11573U 79089A   19015.95364788 -.00000008 +00000-0 +62710-5 0  9996
2 11573 074.0675 357.9826 0014675 062.5513 297.7131 14.36583240055728
1 11585U 79090A   19016.21657638  .00000013  00000-0 -26996-5 0  9992
2 11585  82.9469  42.8872 0029899 157.4898 272.3940 13.76937610972064
1 11605U 79095A   19015.90650638 -.00000134 +00000-0 -87398-4 0  9995
2 11605 081.2108 346.0935 0010239 333.3766 026.6876 14.07072725012262
1 11667U 80003A   19015.95289833 -.00000001 +00000-0 -17168-4 0  9995
2 11667 082.9541 016.9995 0030702 265.0190 155.0422 13.73457457950443
1 11680U 80007A   19016.14482741  .00000038  00000-0  25087-4 0  9996
2 11680  82.9317  15.7966 0036214 317.2617  95.8184 13.73633393953503
1 11691U 80012A   19015.87285605 -.00000019 +00000-0 -19268-4 0  9998
2 11691 074.0214 079.1806 0047907 075.5531 333.9180 12.56851827785970
1 11692U 80012B   19015.86223507 -.00000025 +00000-0 -52052-4 0  9996
2 11692 074.0195 162.1714 0039531 184.1727 286.8470 12.54522176782669
1 11693U 80012C   19015.81105503 -.00000012  00000-0  26306-4 0  9995
2 11693  74.0187 240.9517 0028034 276.4337 156.8893 12.52305367779766
1 11694U 80012D   19015.93176772 -.00000017 +00000-0 -77935-5 0  9996
2 11694 074.0231 319.1594 0017671 022.5584 043.9702 12.50082703776441
1 11695U 80012E   19015.56250854 -.00000012 +00000-0 +22915-4 0  9991
2 11695 074.0213 042.6191 0011109 167.9615 306.6005 12.47732641772992
1 11696U 80012F   19015.78883615 -.00000017  00000-0 -91183-5 0  9993
2 11696  74.0212 133.0417 0022697 302.2667 172.4025 12.45131328769599
1 11697U 80012G   19015.95077407 +.00000007 +00000-0 +16295-3 0  9993
2 11697 074.0180 217.7653 0029227 065.5452 039.2383 12.42702357765926
1 11698U 80012H   19015.95574709 -.00000024 +00000-0 -64205-4 0  9997
2 11698 074.0234 315.0432 0045641 176.7651 251.6302 12.39910584761610
1 11735U 80022A   19015.86804161  .00000019  00000-0  42152-5 0  9998
2 11735  82.9479 120.6150 0035372   2.3909 137.1895 13.74972981948068
1 11750U 80026A   19016.33891574 -.00000077  00000-0  32182-5 0  9993
2 11750  65.8414 307.5021 0024674 209.4516 296.0217 13.73704358945705
1 11765U 80030A   19016.55443798  .00000110  00000-0  15655-4 0  9991
2 11765  66.0854 148.8602 0555578 321.6727  34.6076 14.39212558990030
1 11788U 80034A   19016.45921791 -.00000093  00000-0 -72973-6 0  9993
2 11788  64.8283 340.0419 0043363 349.4849  10.5303 13.92951762972059
1 11803U 80039A   19016.22578278  .00000019  00000-0  45598-5 0  9997
2 11803  82.9435  59.1996 0021442 221.9271 204.8728 13.73978968938149
1 11869U 80056A   19016.34196930  .00000000  00000-0  94389-5 0  9994
2 11869  74.0478 309.2173 0012485  98.2621 261.9947 14.33612000 14766
1 11875U 80058A   19015.58071697 -.00000016  00000-0  11839-5 0  9997
2 11875  74.0184  67.9466 0050590 284.7664 188.4044 12.57162539768025
1 11876U 80058B   19015.82273708 -.00000010 +00000-0 +37487-4 0  9992
2 11876 074.0178 147.1388 0038811 024.4768 135.7940 12.54906069764655
1 11877U 80058C   19015.92618955 +.00000009 +00000-0 +16061-3 0  9992
2 11877 074.0154 222.5975 0026470 110.5461 249.8435 12.52756094761657
